[{"OBJECT_NAME":"STARLINK-35409","OBJECT_ID":"2025-243V","EPOCH":"2026-03-09T18:03:23.878080","MEAN_MOTION":15.30196191,"ECCENTRICITY":9.943e-5,"INCLINATION":53.1592,"RA_OF_ASC_NODE":244.9387,"ARG_OF_PERICENTER":134.1816,"MEAN_ANOMALY":225.9266,"EPHEMERIS_TYPE":0,"CLASSIFICATION_TYPE":"U","NORAD_CAT_ID":66196,"ELEMENT_SET_NO":999,"REV_AT_EPOCH":2066,"BSTAR":0.00046771686,"MEAN_MOTION_DOT":0.00013517,"MEAN_MOTION_DDOT":0},{"OBJECT_NAME":"COSMOS 1975","OBJECT_ID":"1988-093A","EPOCH":"2026-03-09T14:15:08.474112","MEAN_MOTION":15.28069249,"ECCENTRICITY":0.0012117,"INCLINATION":82.5181,"RA_OF_ASC_NODE":117.7814,"ARG_OF_PERICENTER":163.8427,"MEAN_ANOMALY":196.3201,"EPHEMERIS_TYPE":0,"CLASSIFICATION_TYPE":"U","NORAD_CAT_ID":19573,"ELEMENT_SET_NO":999,"REV_AT_EPOCH":1939,"BSTAR":0.0002787,"MEAN_MOTION_DOT":7.676e-5,"MEAN_MOTION_DDOT":0}]
